<?xml version="1.0" encoding="UTF-8"?><kml xmlns="http://www.opengis.net/kml/2.2">
<Document>
	<name>UPRSx</name>
	<Placemark>
		<name>08-06-2026 10:22:29 AM</name>
		<Snippet maxLines="1"></Snippet>
		<Style>
			<IconStyle>
				<Icon>
				</Icon>
			</IconStyle>
				<LabelStyle>
					<color>ff00ffff</color>
				</LabelStyle>
			</Style>
		<description><![CDATA[Count = 7<br>Filter = FMWOIU<br>UPRSx Version 2.4.1034<br>]]></description>
	</Placemark>
	<open>1</open>
	<Snippet maxLines="1"></Snippet>
	<description><![CDATA[08-06-2026 10:22:29 AM<br>Count = 7<br>Filter = FMWOIU<br>]]></description>

	<Style id="sn_noicon">
		<IconStyle>
			<Icon>
			</Icon>
		</IconStyle>
	</Style>

	<Placemark id="WN0X-1">
		<name>WN0X-1</name>
		<Style id="WN0X-1_S">
			<IconStyle>
				<Icon>
					<href>https://raw.githubusercontent.com/RJBeckwith/Symbols/main/15.png</href>
				</Icon>
				<hotSpot x="16" y="16" xunits="pixels" yunits="pixels"/>			</IconStyle>
			<LabelStyle>
				<color>ff00ffff</color>
			</LabelStyle>
		</Style>
		<description><![CDATA[8/6/2026 10:21:45 AM<br>Age = 1 minutes old.<br>]]></description>
		<Point>
			<coordinates>-92.3453439,38.6298307</coordinates>
		</Point>
	</Placemark>

	<Placemark id="N3GMS  B">
		<name>N3GMS  B</name>
		<Style id="N3GMS  B_S">
			<IconStyle>
				<Icon>
					<href>https://raw.githubusercontent.com/RJBeckwith/Symbols/main/159.png</href>
				</Icon>
				<hotSpot x="16" y="16" xunits="pixels" yunits="pixels"/>			</IconStyle>
			<LabelStyle>
				<color>ff00ffff</color>
			</LabelStyle>
		</Style>
		<description><![CDATA[A=10FT<br>8/6/2026 10:21:00 AM<br>Age = 1 minutes old.<br>]]></description>
		<Point>
			<coordinates>-91.48,39.3</coordinates>
		</Point>
	</Placemark>


	<Placemark id="N3GMS-B">
		<name>N3GMS-B</name>
		<Style id="N3GMS-B_S">
			<IconStyle>
				<Icon>
					<href>https://raw.githubusercontent.com/RJBeckwith/Symbols/main/100.png</href>
				</Icon>
				<hotSpot x="16" y="16" xunits="pixels" yunits="pixels"/>			</IconStyle>
			<LabelStyle>
				<color>ff00ffff</color>
			</LabelStyle>
		</Style>
		<description><![CDATA[A=10FT<br>8/6/2026 10:21:57 AM<br>Age = 1 minutes old.<br>]]></description>
		<Point>
			<coordinates>-91.48,39.3</coordinates>
		</Point>
	</Placemark>


	<Placemark id="KB0VZS-D">
		<name>KB0VZS-D</name>
		<Style id="KB0VZS-D_S">
			<IconStyle>
				<Icon>
					<href>https://raw.githubusercontent.com/RJBeckwith/Symbols/main/100.png</href>
				</Icon>
				<hotSpot x="16" y="16" xunits="pixels" yunits="pixels"/>			</IconStyle>
			<LabelStyle>
				<color>ff00ffff</color>
			</LabelStyle>
		</Style>
		<description><![CDATA[8/6/2026 10:22:02 AM<br>Age = 0 minutes old.<br>]]></description>
		<Point>
			<coordinates>-93.453,38.6071667</coordinates>
		</Point>
	</Placemark>

	<Placemark id="GMRS AMO">
		<name>GMRS AMO</name>
		<Style id="GMRS AMO_S">
			<IconStyle>
				<Icon>
					<href>https://raw.githubusercontent.com/RJBeckwith/Symbols/main/82.png</href>
				</Icon>
				<hotSpot x="16" y="16" xunits="pixels" yunits="pixels"/>			</IconStyle>
			<LabelStyle>
				<color>ff00ffff</color>
			</LabelStyle>
		</Style>
		<description><![CDATA[8/11/2026 6:11:00 AM<br>Age = -6949 minutes old.<br>]]></description>
		<Point>
			<coordinates>-92.3151667,38.7636667</coordinates>
		</Point>
	</Placemark>

	<Placemark id="BOTHWL">
		<name>BOTHWL</name>
		<Style id="BOTHWL_S">
			<IconStyle>
				<Icon>
					<href>https://raw.githubusercontent.com/RJBeckwith/Symbols/main/72.png</href>
				</Icon>
				<hotSpot x="16" y="16" xunits="pixels" yunits="pixels"/>			</IconStyle>
			<LabelStyle>
				<color>ff00ffff</color>
			</LabelStyle>
		</Style>
		<description><![CDATA[16W 80 HAAT 6db OMNI<br>8/6/2026 10:22:14 AM<br>Age = 0 minutes old.<br>]]></description>
		<Point>
			<coordinates>-93.2208333,38.6993333</coordinates>
		</Point>
	</Placemark>


	<Placemark id="EAXFLSP3A">
		<name>EAXFLSP3A</name>
		<Style id="EAXFLSP3A_S">
			<IconStyle>
				<Icon>
					<href>https://raw.githubusercontent.com/RJBeckwith/Symbols/main/181.png</href>
				</Icon>
				<hotSpot x="16" y="16" xunits="pixels" yunits="pixels"/>			</IconStyle>
			<LabelStyle>
				<color>ff00ffff</color>
			</LabelStyle>
		</Style>
		<description><![CDATA[Mesoscale Discussion Area<br>Expires 8/7/2026 10:45 AM<br>8/6/2026 10:22:23 AM<br>Age = 0 minutes old.<br>]]></description>
		<Point>
			<coordinates>-92.57,39.08</coordinates>
		</Point>
	</Placemark>
	<Style id="EAXFLSP3A_S1">
		<LineStyle>
			<color>ff00ff00</color>
			<width>4</width>
		</LineStyle>
		<PolyStyle>
			<color>2300ff00</color>
			<fill>1</fill>
		</PolyStyle>
	</Style>
	<Placemark id="EAXFLSP3A_P1">
		<name>EAXFLSP3A_P1</name>
		<styleUrl>#EAXFLSP3A_S1</styleUrl>
		<Polygon>
			<tessellate>1</tessellate>
			<outerBoundaryIs>
				<LinearRing>
				<coordinates>-92.59,39.14,0 -92.52,39.14,0 -92.56,39.02,0 -92.62,39.03,0 -92.59,39.14,0 -92.59,39.14,0 </coordinates>
			</LinearRing>
			</outerBoundaryIs>
		</Polygon>
	</Placemark>


</Document>
</kml>

