<?xml version="1.0" encoding="UTF-8"?><kml xmlns="http://www.opengis.net/kml/2.2">
<Document>
	<name>UPRSx</name>
	<Placemark>
		<name>08-06-2026 1:03:00 PM</name>
		<Snippet maxLines="1"></Snippet>
		<Style>
			<IconStyle>
				<Icon>
				</Icon>
			</IconStyle>
				<LabelStyle>
					<color>ff00ffff</color>
				</LabelStyle>
			</Style>
		<description><![CDATA[Count = 2<br>Filter = FMWOIU<br>UPRSx Version 2.4.1037<br>]]></description>
	</Placemark>
	<open>1</open>
	<Snippet maxLines="1"></Snippet>
	<description><![CDATA[08-06-2026 1:03:00 PM<br>Count = 2<br>Filter = FMWOIU<br>]]></description>

	<Style id="sn_noicon">
		<IconStyle>
			<Icon>
			</Icon>
		</IconStyle>
	</Style>

	<Placemark id="WN0X-1">
		<name>WN0X-1</name>
		<Style id="WN0X-1_S">
			<IconStyle>
				<Icon>
					<href>https://raw.githubusercontent.com/RJBeckwith/Symbols/main/15.png</href>
				</Icon>
				<hotSpot x="16" y="16" xunits="pixels" yunits="pixels"/>			</IconStyle>
			<LabelStyle>
				<color>ff00ffff</color>
			</LabelStyle>
		</Style>
		<description><![CDATA[8/6/2026 1:02:45 PM<br>Age = 1 minutes old.<br>]]></description>
		<Point>
			<coordinates>-92.3453439,38.6298307</coordinates>
		</Point>
	</Placemark>

	<Placemark id="W0TUE-1">
		<name>W0TUE-1</name>
		<Style id="W0TUE-1_S">
			<IconStyle>
				<Icon>
					<href>https://raw.githubusercontent.com/RJBeckwith/Symbols/main/97.png</href>
				</Icon>
				<hotSpot x="16" y="16" xunits="pixels" yunits="pixels"/>			</IconStyle>
			<LabelStyle>
				<color>ff00ffff</color>
			</LabelStyle>
		</Style>
		<description><![CDATA[36W 20 HAAT 7db OMNI<br>8/6/2026 1:02:56 PM<br>Age = 1 minutes old.<br>]]></description>
		<Point>
			<coordinates>-93.4268333,38.3088333</coordinates>
		</Point>
	</Placemark>


</Document>
</kml>

